STARLINK-5742           
1 55583U 23020Q   26165.31028400 -.00000249  00000+0  45994-6 0  9993
2 55583  43.0011 179.2005 0001411 270.7341  89.3349 15.27575749183697
STARLINK-5736           
1 55584U 23020R   26167.72332664  .00000660  00000+0  33506-4 0  9991
2 55584  43.0000 166.3494 0000436 291.1405  68.9400 15.27572858184059
STARLINK-5769           
1 55585U 23020S   26168.25926656 -.00000026  00000+0  85619-5 0  9991
2 55585  43.0023 152.2298 0000627 267.0907  92.9873 15.27574907184263
STARLINK-5767           
1 55586U 23020T   26167.70660157 -.00000282  00000+0 -73763-6 0  9995
2 55586  43.0025 166.2199 0001203 271.9930  88.0784 15.27574840184052
STARLINK-5727           
1 55587U 23020U   26168.41941391 -.00000564  00000+0 -10987-4 0  9997
2 55587  43.0020 162.0377 0000642 305.4960  54.5831 15.27576380184166
STARLINK-5728           
1 55588U 23020V   26167.70274734 -.00000028  00000+0  84942-5 0  9996
2 55588  43.0029 166.1964 0001181 266.0143  94.0573 15.27571687184052
STARLINK-5697           
1 55589U 23020W   26167.69116977  .00000298  00000+0  20338-4 0  9995
2 55589  42.9966 166.1044 0001653 271.9247  88.1415 15.27583513184054
STARLINK-5762           
1 55590U 23020X   26167.68475656  .00000866  00000+0  40989-4 0  9993
2 55590  43.0037 166.0622 0001303 268.2501  91.8201 15.27577211184054
STARLINK-5760           
1 55591U 23020Y   26168.41814394 -.00000099  00000+0  59073-5 0  9996
2 55591  43.0021 162.1053 0000905 268.4984  91.5764 15.27575123184160
STARLINK-5759           
1 55592U 23020Z   26168.25524208  .00000450  00000+0  25885-4 0  9994
2 55592  43.0058 162.6031 0001581 273.6412  86.4259 15.27579887184148
STARLINK-5703           
1 55593U 23020AA  26168.25139257  .00000405  00000+0  24234-4 0  9998
2 55593  42.9987 162.5715 0001226 264.3307  95.7405 15.27578431184142
STARLINK-5750           
1 55594U 23020AB  26168.25909953  .00000240  00000+0  18252-4 0  9997
2 55594  42.9998 162.6286 0001066 259.4035 100.6697 15.27577621184143
STARLINK-5729           
1 55596U 23020AD  26167.68090580 -.00000252  00000+0  36144-6 0  9998
2 55596  43.0015 166.0287 0000940 301.9557  58.1203 15.27582439184051
STARLINK-5743           
1 55597U 23020AE  26167.68991549  .00000192  00000+0  16501-4 0  9999
2 55597  43.0043 154.8398 0001376 270.0204  90.0490 15.27577253184185
STARLINK-5756           
1 55598U 23020AF  26168.24768975  .00005420  00000+0  20628-3 0  9991
2 55598  42.9952 152.1086 0001866 274.1970  85.8668 15.27587903184268
STARLINK-5761           
1 55599U 23020AG  26168.25155322 -.00000803  00000+0 -19671-4 0  9998
2 55599  43.0011 152.1436 0000878 273.1418  86.9334 15.27575149184265
STARLINK-5755           
1 55600U 23020AH  26168.42329787 -.00000052  00000+0  76497-5 0  9993
2 55600  43.0026 150.8700 0001592 273.3728  86.6941 15.27580563184293
STARLINK-5744           
1 55601U 23020AJ  26167.72461000  .00000231  00000+0  17895-4 0  9995
2 55601  42.9955 166.3460 0000919 237.7068 122.3694 15.27570491184057
STARLINK-5764           
1 55602U 23020AK  26168.25540579 -.00000287  00000+0 -91723-6 0  9991
2 55602  43.0012 152.1720 0000828 265.6064  94.4693 15.27574719184269
STARLINK-5735           
1 55603U 23020AL  26168.22328284  .00000182  00000+0  16131-4 0  9996
2 55603  43.0020 151.9529 0001131 257.1599 102.9126 15.27576916184267
STARLINK-5748           
1 55604U 23020AM  26166.65837172 -.00000311  00000+0 -17854-5 0  9993
2 55604  43.0037 146.1292 0000806 286.5156  73.5607 15.27578519184192
STARLINK-5725           
1 55605U 23020AN  26168.23099340  .00001437  00000+0  61710-4 0  9994
2 55605  42.9968 152.0033 0001599 276.2619  83.8050 15.27584295184265
STARLINK-5700           
1 55607U 23020AQ  26168.24512859  .00000081  00000+0  12479-4 0  9994
2 55607  43.0012 152.1118 0001231 265.8751  94.1960 15.27576354184260
STARLINK-5726           
1 55608U 23020AR  26168.24898611  .00000125  00000+0  14042-4 0  9995
2 55608  43.0019 152.1357 0000756 246.4446 113.6327 15.27575466184267
STARLINK-5719           
1 55609U 23020AS  26168.24127750  .00000375  00000+0  23152-4 0  9994
2 55609  42.9999 152.0830 0001220 261.2592  98.8121 15.27577790184260
STARLINK-5722           
1 55610U 23020AT  26168.25669235 -.00000252  00000+0  35877-6 0  9990
2 55610  43.0026 152.1910 0000892 268.5422  91.5327 15.27574538184266
STARLINK-5730           
1 55611U 23020AU  26167.28231720  .00000155  00000+0  15146-4 0  9993
2 55611  43.0036 157.7723 0000767 287.2370  72.8398 15.27577677184113
STARLINK-5734           
1 55612U 23020AV  26168.39774451 -.00000052  00000+0  76358-5 0  9990
2 55612  43.0028 151.5370 0001163 273.5703  86.5015 15.27576076184282
STARLINK-5714           
1 55614U 23020AX  26167.64558200  .00000061  00000+0  11739-4 0  9991
2 55614  43.0054 140.5961 0001453 275.3003  84.7683 15.27576926184344
STARLINK-5712           
1 55615U 23020AY  26166.70783065 -.00000267  00000+0 -16527-6 0  9999
2 55615  43.0054 160.3560 0001726 271.2200  88.8454 15.27575628184032
STARLINK-5710           
1 55616U 23020AZ  26168.28739166  .00000066  00000+0  11919-4 0  9991
2 55616  43.0029 151.5703 0001347 270.6110  89.4587 15.27574545184275
STARLINK-5721           
1 55617U 23020BA  26167.69248138  .00000773  00000+0  37627-4 0  9999
2 55617  43.0041 154.8418 0001908 287.5934  72.4709 15.27579651184184
STARLINK-5717           
1 55618U 23020BB  26168.22585689 -.00001388  00000+0 -40946-4 0  9998
2 55618  43.0016 151.9660 0001569 264.1565  95.9108 15.27567319184268
STARLINK-5720           
1 55619U 23020BC  26168.22970617  .00000296  00000+0  20283-4 0  9995
2 55619  42.9916 151.9828 0001073 246.6224 113.4514 15.27577178184259
STARLINK-5718           
1 55620U 23020BD  26168.23356418 -.00000124  00000+0  50155-5 0  9998
2 55620  43.0008 152.0197 0001444 263.6521  96.4166 15.27574620184260
STARLINK-5709           
1 55621U 23020BE  26168.21814491  .00000706  00000+0  35207-4 0  9992
2 55621  43.0039 151.9094 0001903 282.7457  77.3182 15.27576061184266
STARLINK-5702           
1 55622U 23020BF  26168.23741800 -.00000924  00000+0 -24057-4 0  9993
2 55622  43.0014 152.0497 0001056 261.4998  98.5734 15.27577945184262
STARLINK-5698           
1 55623U 23020BG  26168.24000397 -.00001410  00000+0 -41754-4 0  9998
2 55623  43.0019 152.0672 0001268 263.4883  96.5824 15.27562776  7687
STARLINK-5484           
1 55628U 23021A   26168.47944321 -.00000440  00000+0 -29075-4 0  9997
2 55628  69.9993 312.9347 0002933 267.6416  92.4407 14.98336918183247
STARLINK-5497           
1 55629U 23021B   26168.48361400  .00000742  00000+0  70009-4 0  9996
2 55629  69.9994 312.9503 0002815 263.9889  96.0949 14.98330208183242
STARLINK-5303           
1 55630U 23021C   26168.47528875 -.00002149  00000+0 -17246-3 0  9996
2 55630  69.9995 312.9195 0002815 271.3362  88.7475 14.98308424183248
STARLINK-5558           
1 55631U 23021D   26168.51698480  .00000829  00000+0  77273-4 0  9990
2 55631  69.9999 312.6619 0003112 273.2972  86.7831 14.98322615183253
STARLINK-5546           
1 55632U 23021E   26168.46691653  .00000363  00000+0  38258-4 0  9993
2 55632  69.9994 312.8879 0003121 269.1249  90.9553 14.98328630183240
STARLINK-5498           
1 55633U 23021F   26168.52950257  .00000218  00000+0  26051-4 0  9996
2 55633  69.9992 312.7059 0003351 268.8407  91.2368 14.98328367183251
STARLINK-5500           
1 55634U 23021G   26168.46708295  .00001057  00000+0  96387-4 0  9994
2 55634  69.9997 312.8901 0002988 269.6744  90.4073 14.98330812183232
STARLINK-5495           
1 55635U 23021H   26168.51258064  .00000277  00000+0  31006-4 0  9995
2 55635  69.9991 292.7777 0003154 269.6011  90.4787 14.98330792183742
STARLINK-5218           
1 55636U 23021J   26168.52115406 -.00000166  00000+0 -61185-5 0  9990
2 55636  70.0003 312.6778 0002898 260.3022  99.7810 14.98329087183257
STARLINK-5062           
1 55637U 23021K   26168.46251698  .00000151  00000+0  20489-4 0  9991
2 55637  69.9996 293.0027 0003199 266.9404  93.1389 14.98330750183737
STARLINK-5507           
1 55638U 23021L   26168.52534587  .00001362  00000+0  12191-3 0  9995
2 55638  69.9997 312.6917 0003240 265.6061  94.4728 14.98322106183251
STARLINK-5508           
1 55639U 23021M   26168.50858624  .00002459  00000+0  21385-3 0  9998
2 55639  69.9989 292.7601 0003454 266.0187  94.0577 14.98325955183749
STARLINK-5069           
1 55640U 23021N   26168.50423322  .00000210  00000+0  25395-4 0  9992
2 55640  69.9996 292.7444 0002690 270.9609  89.1242 14.98331076183743
STARLINK-5065           
1 55641U 23021P   26168.46669147 -.00000015  00000+0  65092-5 0  9998
2 55641  69.9995 293.0148 0003440 267.4975  92.5790 14.98330007183737
STARLINK-5483           
1 55643U 23021R   26168.47504185 -.00000055  00000+0  31643-5 0  9990
2 55643  69.9997 293.0411 0003175 269.9071  90.1724 14.98327592183739
STARLINK-5502           
1 55644U 23021S   26168.52094240  .00001257  00000+0  11316-3 0  9990
2 55644  69.9990 292.8042 0002957 262.3949  97.6875 14.98327088183748
STARLINK-5510           
1 55647U 23021V   26168.48750670  .00003764  00000+0  32286-3 0  9998
2 55647  69.9998 292.6872 0002865 260.1266  99.9569 14.98355143183742
STARLINK-5501           
1 55648U 23021W   26168.51675559 -.00000405  00000+0 -26114-4 0  9990
2 55648  69.9990 292.7897 0002959 267.5199  92.5622 14.98333557183747
STARLINK-5469           
1 55649U 23021X   26168.49588472  .00000775  00000+0  72755-4 0  9995
2 55649  69.9993 292.7158 0003185 268.6073  91.4721 14.98330254183745
STARLINK-5494           
1 55650U 23021Y   26168.50841178 -.00000037  00000+0  47204-5 0  9998
2 55650  69.9992 292.7593 0002908 270.8109  89.2717 14.98340230183741
STARLINK-5506           
1 55651U 23021Z   26168.52510242  .00000042  00000+0  11326-4 0  9996
2 55651  69.9995 292.8192 0003217 267.3513  92.7278 14.98331877183743
